{
  "norad_id": 52641,
  "name": "STARLINK-3991",
  "history": [
    {
      "epoch": "2026-03-28T13:25:08.373216Z",
      "apogee_km": 540.5410835451594,
      "perigee_km": 538.9292193338733,
      "latitude_deg": 3.764938032211375e-05,
      "longitude_deg": 147.35340535978926,
      "height_km": 540.6054623061816,
      "semi_major_axis_km": 6917.872151439516,
      "eccentricity": 0.0001165,
      "inclination_deg": 53.2154,
      "raan_deg": 174.6161,
      "arg_perigee_deg": 88.1906,
      "mean_anomaly_deg": 271.922,
      "mean_motion_rev_day": 15.08842695
    }
  ]
}