{"fetched_at":"2026-03-29T02:12:04Z","count":15717,"tles":[{"name":"STARLINK-3991","line1":"1 52641U 22052AV  26087.55912469  .00000617  00000+0  56824-4 0  9995","line2":"2 52641  53.2154 174.6161 0001164  88.1906 271.9220 15.08842695213984","category":"Starlink"}]}